INTELSAT 701 (IS-701)   
1 22871U 93066A   17040.36013032 -.00000242  00000-0  00000+0 0  9992
2 22871   3.9551  67.7112 0004612 244.5980 287.4435  1.00271479 85113
INTELSAT 26 (IS-26)     
1 24732U 97007A   17040.15552352 -.00000019  00000-0  00000+0 0  9991
2 24732   7.2628  50.9706 0003032 276.2658 292.4086  1.00272486 73030
GALAXY 25 (G-25)        
1 24812U 97026A   17039.87194065 -.00000186  00000-0  00000+0 0  9996
2 24812   0.0226  79.1935 0003493 241.2933  39.4518  1.00272115 72116
INTELSAT 5 (IS-5)       
1 24916U 97046A   17039.37838758 -.00000164  00000-0  00000+0 0  9998
2 24916   3.2958  71.7556 0004103 237.0238 123.0827  1.00271851 71360
INTELSAT 805 (IS-805)   
1 25371U 98037A   17040.36843894  .00000000  00000-0  10000-3 0  9996
2 25371   0.0049   7.0002 0003154 314.8907 119.3924  1.00270110 68327
AFRISTAR                
1 25515U 98063A   17040.04814976  .00000100  00000-0  00000+0 0  9995
2 25515   3.0525  70.0776 0004159 255.0869 212.4817  1.00275097 66880
INTELSAT 8 (IS-8)       
1 25522U 98065A   17039.97281428 -.00000131  00000-0  00000+0 0  9990
2 25522   0.7288  87.3606 0304741 219.1905 250.1553  0.95184785 66852
GALAXY 11 (G-11)        
1 26038U 99071A   17040.15782170  .00000113  00000-0  00000+0 0  9992
2 26038   0.0211  78.4136 0001744 312.6776 210.1743  1.00266189 62854
SIRIUS-1                
1 26390U 00035A   17039.83728650  .00000071  00000-0  00000+0 0  9994
2 26390  59.5529 228.9590 0001857 100.9978  76.6817  1.57876833 61513
INTELSAT 9 (IS-9)       
1 26451U 00043A   17040.18812110 -.00000296  00000-0  00000+0 0  9996
2 26451   3.2837  71.9772 0003246 242.9635 209.1287  1.00270632 60604
INTELSAT 12 (IS-12)     
1 26590U 00068A   17040.15782170  .00000113  00000-0  00000+0 0  9993
2 26590   0.2148  95.2447 0003191 225.5130 280.4646  1.00270051 59552
INTELSAT 1R (IS-1R)     
1 26608U 00072A   17039.99641465 -.00000227  00000-0  00000+0 0  9996
2 26608   0.0577  99.4668 0001191 186.7378 132.5659  1.00010848 59419
INTELSAT 10 (IS-10)     
1 26766U 01019A   17040.15520058  .00000102  00000-0  00000+0 0  9998
2 26766   1.2504  85.8517 0004192 206.0037 310.9309  1.00268789 57681
INTELSAT 901 (IS-901)   
1 26824U 01024A   17040.23922826 -.00000165  00000-0  00000+0 0  9997
2 26824   0.0102 286.3721 0002918  36.0355 245.2271  1.00270580 57354
INTELSAT 902 (IS-902)   
1 26900U 01039A   17039.91101414  .00000009  00000-0  00000+0 0  9999
2 26900   0.0156  78.7442 0002945 245.9169 204.4696  1.00271679 56521
DIRECTV 4S              
1 26985U 01052A   17040.11923263 -.00000137  00000-0  00000+0 0  9998
2 26985   0.0530 266.8354 0002429  51.6529 122.6134  1.00272479 55752
INTELSAT 904 (IS-904)   
1 27380U 02007A   17039.91335645  .00000025  00000-0  00000+0 0  9991
2 27380   0.0210 112.0660 0002302 145.3190 270.5958  1.00273091 54841
INTELSAT 903 (IS-903)   
1 27403U 02016A   17040.12565845 -.00000263  00000-0  00000+0 0  9994
2 27403   0.0169  15.7243 0003463 294.7024 199.6805  1.00271319 54405
DIRECTV 5 (TEMPO 1)     
1 27426U 02023A   17038.92186804 -.00000078  00000-0  00000+0 0  9990
2 27426   0.0117 106.4756 0003522 209.9773  43.4856  1.00273085 54050
INTELSAT 905 (IS-905)   
1 27438U 02027A   17040.11832404 -.00000209  00000-0  00000+0 0  9991
2 27438   0.0205 200.7517 0002288 107.4589 209.2626  1.00271993 53725
GALAXY 3C (G-3C)        
1 27445U 02030A   17040.10368088  .00000000  00000-0  10000-3 0  9997
2 27445   0.0205  70.1845 0002084 271.0046 100.4054  1.00266095 53720
INTELSAT 906 (IS-906)   
1 27513U 02041A   17039.91055267 -.00000009  00000-0  00000+0 0  9999
2 27513   0.0089  95.0552 0002674 233.0661 202.9847  1.00272118 52723
INTELSAT 907 (IS-907)   
1 27683U 03007A   17037.69572944 -.00000221  00000-0  00000+0 0  9995
2 27683   0.0087  38.0009 0003512 283.8641  38.0800  1.00271141 51121
GALAXY 12 (G-12)        
1 27715U 03013B   17039.73694084  .00000035  00000-0  00000+0 0  9997
2 27715   0.0694 263.2196 0001945  51.5849 320.4750  1.00271810 50751
GALAXY 23 (G-23)        
1 27854U 03034A   17039.57328309 -.00000010  00000-0  00000+0 0  9994
2 27854   0.0113  85.6536 0003020 238.0780 260.4996  1.00271743 54290
GALAXY 13 (HORIZONS-1)  
1 27954U 03044A   17040.31793595  .00000025  00000-0  00000+0 0  9998
2 27954   0.0086  97.2151 0001350 192.7573 197.0137  1.00262129 48914
DIRECTV 7S              
1 28238U 04016A   17039.48288164 -.00000022  00000-0  00000+0 0  9999
2 28238   0.0472 286.3698 0002963  34.9076 232.2356  1.00272616 46816
INTELSAT 10-02          
1 28358U 04022A   17040.29757385 -.00000036  00000-0  00000+0 0  9991
2 28358   0.0149 128.0918 0000276 156.3078 321.2700  1.00269654 46385
XM-3 (RHYTHM)           
1 28626U 05008A   17040.30950765 -.00000230  00000-0  00000+0 0  9999
2 28626   0.0014 187.6580 0000383 131.7891 206.4088  1.00271197 43823
SPACEWAY 1              
1 28644U 05015A   17040.31919993 -.00000127  00000-0  00000+0 0  9991
2 28644   0.0444 266.9559 0000414   8.1749 236.4152  1.00272539 43276
DIRECTV 8               
1 28659U 05019A   17039.89349952 -.00000139  00000-0  00000+0 0  9997
2 28659   0.0184  80.1647 0003506 244.2874  35.5245  1.00270340 42946
GALAXY 28 (G-28)        
1 28702U 05022A   17039.48659418 -.00000208  00000-0  00000+0 0  9993
2 28702   0.0125  91.9588 0001617 291.4458 201.5172  1.00272251 42573
GALAXY 14 (G-14)        
1 28790U 05030A   17040.32323236  .00000012  00000-0  00000+0 0  9992
2 28790   0.0044 249.6577 0002709  72.5670 168.6958  1.00271619 42063
GALAXY 15 (G-15)        
1 28884U 05041A   17040.44835869  .00000054  00000-0  00000+0 0  9997
2 28884   0.0615 279.4909 0002156  58.3819 190.2372  1.00273792 41383
SPACEWAY 2              
1 28903U 05046B   17039.57063446 -.00000150  00000-0  00000+0 0  9998
2 28903   0.0163 103.4715 0000606 220.2176 281.5230  1.00270118 41249
GALAXY 16 (G-16)        
1 29236U 06023A   17039.57063470 -.00000150  00000-0  00000+0 0  9991
2 29236   0.0534 262.0706 0003003  64.7677 278.4110  1.00271125 39017
DIRECTV 9S              
1 29494U 06043A   17039.57826153 -.00000137  00000-0  00000+0 0  9999
2 29494   0.0185 147.7636 0003835 174.8775 283.2620  1.00271333 37852
XM-4 (BLUES)            
1 29520U 06049A   17040.26486021 -.00000047  00000-0  00000+0 0  9999
2 29520   0.0049 122.9127 0000282 207.1531 149.5511  1.00273133 37756
GALAXY 17 (G-17)        
1 31307U 07016B   17039.48659418 -.00000197  00000-0  00000+0 0  9990
2 31307   0.0361 324.1164 0003668   5.5725 253.2332  1.00269814 35823
DIRECTV 10              
1 31862U 07032A   17039.89906678 -.00000126  00000-0  00000+0 0  9994
2 31862   0.0138 271.7298 0000088  26.1796  62.0897  1.00269971 35169
SPACEWAY 3              
1 32018U 07036A   17040.42012080 -.00000174  00000-0  00000+0 0  9991
2 32018   0.0137 106.7996 0000435  35.5156  53.6659  1.00257671 34888
INTELSAT 11 (IS-11)     
1 32253U 07044B   17040.18796310 -.00000293  00000-0  00000+0 0  9991
2 32253   0.0520 263.1157 0003312  62.1830 198.7970  1.00270467 34283
HORIZONS-2              
1 32388U 07063B   17040.03507898 -.00000206  00000-0  00000+0 0  9990
2 32388   0.0194  86.8806 0003131 253.3832 256.5382  1.00271411 33633
DIRECTV 11              
1 32729U 08013A   17040.28251644 -.00000150  00000-0  00000+0 0  9995
2 32729   0.0046 241.2277 0000368  83.3881 177.4242  1.00272081 32696
GALAXY 18 (G-18)        
1 32951U 08024A   17040.22119616  .00000027  00000-0  10000-3 0  9997
2 32951   0.0270  99.6588 0003116 252.5928 103.8893  1.00271252 31848
INTELSAT 25 (IS-25)     
1 33153U 08034A   17039.70133623 -.00000248  00000-0  00000+0 0  9999
2 33153   0.0057 148.1604 0002984 154.0366  57.7385  1.00271076 31396
GALAXY 19 (G-19)        
1 33376U 08045A   17039.88279279 -.00000163  00000-0  00000+0 0  9991
2 33376   0.0095 109.1702 0003193 212.1049  38.6660  1.00271577 30599
SIRIUS FM-5             
1 35493U 09034A   17039.48659418 -.00000223  00000-0  00000+0 0  9992
2 35493   0.0137  85.2497 0000670 240.4059 262.1164  1.00270818 27726
INTELSAT 14 (IS-14)     
1 36097U 09064A   17039.73878213 -.00000297  00000-0  00000+0 0  9991
2 36097   0.0110  92.8613 0002937 236.5329  30.5530  1.00270485 26460
INTELSAT 15 (IS-15)     
1 36106U 09067A   17039.69475484 -.00000208  00000-0  00000+0 0  9995
2 36106   0.0184  86.5051 0002651 244.6108 143.1269  1.00267073 26353
DIRECTV 12              
1 36131U 09075A   17040.23004490 -.00000127  00000-0  00000+0 0  9999
2 36131   0.0430 262.9177 0000212  40.0273 176.5430  1.00271361 26148
INTELSAT 16 (IS-16)     
1 36397U 10006A   17040.30960382 -.00000309  00000-0  00000+0 0  9990
2 36397   0.0190 271.1889 0002800  71.4369 210.3171  1.00269334 25499
XM-5                    
1 37185U 10053A   17039.90766137 -.00000229  00000-0  00000+0 0  9995
2 37185   0.0140  89.7605 0000611 260.4680  30.4753  1.00270945 23207
INTELSAT 17 (IS-17)     
1 37238U 10065B   17039.97061262 -.00000026  00000-0  00000+0 0  9996
2 37238   0.0566 261.1781 0002488  59.7456 233.7333  1.00272577 22678
INTELSAT NEW DAWN       
1 37392U 11016A   17039.97409314  .00000132  00000-0  00000+0 0  9995
2 37392   0.0580 265.8814 0000298  18.0561 238.7322  1.00272183 21276
INTELSAT 18 (IS-18)     
1 37834U 11056A   17040.35237619  .00000000  00000-0  10000-3 0  9990
2 37834   0.0105  72.2880 0002763 274.9465  99.2219  1.00269442 19612
INTELSAT 22 (IS-22)     
1 38098U 12011A   17038.41708632 -.00000079  00000-0  00000+0 0  9999
2 38098   0.0216  11.7446 0002374 314.0958  34.1121  1.00272272 17797
INTELSAT 19 (IS-19)     
1 38356U 12030A   17040.15147399 -.00000081  00000-0  00000+0 0  9991
2 38356   0.0148 345.4984 0002790 338.3091  36.1371  1.00272574 17278
INTELSAT 20 (IS-20)     
1 38740U 12043A   17038.42711825 -.00000044  00000-0  00000+0 0  9999
2 38740   0.0189 110.9470 0001160  65.5855 183.4362  1.00269291 16572
INTELSAT 21 (IS-21)     
1 38749U 12045A   17038.77750128 -.00000306  00000-0  00000+0 0  9998
2 38749   0.0106 106.5014 0002394 206.9575  46.5212  1.00269263 16386
INTELSAT 23 (IS-23)     
1 38867U 12057A   17039.76090213 -.00000308  00000-0  00000+0 0  9996
2 38867   0.0609 266.7569 0002150  48.6904  44.4997  1.00272293 15862
SIRIUS FM-6             
1 39360U 13058A   17039.93589493 -.00000041  00000-0  00000+0 0  9993
2 39360   0.0249  81.2120 0000366  44.9633 233.7922  1.00272535 12103
INTELSAT 30 (IS-30)     
1 40271U 14062A   17040.17972029 -.00000175  00000-0  00000+0 0  9999
2 40271   0.0115  85.8354 0001569  12.3608  10.8693  1.00272671  8525
INTELSAT 34 (IS-34)     
1 40874U 15039A   17038.77061871 -.00000307  00000-0  00000+0 0  9997
2 40874   0.0155  93.8025 0001063 134.4107 131.7777  1.00269937  5424
INTELSAT 29E (IS-29E)   
1 41308U 16004A   17039.75264812 -.00000306  00000-0  00000+0 0  9991
2 41308   0.0564 274.2770 0001616  29.3897  56.2822  1.00272881  3911
INTELSAT 31 (IS-31)     
1 41581U 16035A   17039.87743427 -.00000174  00000-0  00000+0 0  9998
2 41581   0.0312 228.1779 0002391 343.1968 148.5753  1.00270784  2466
INTELSAT 36 (IS-36)     
1 41747U 16053A   17039.42436707 -.00000047  00000-0  00000+0 0  9992
2 41747   0.0080  57.8185 0003407 282.9364  19.1972  1.00271232  1722
INTELSAT 33E (IS-33E)   
1 41748U 16053B   17038.45061847  .00000029  00000-0  00000+0 0  9993
2 41748   0.0107  77.8032 0002257 236.8809  45.2652  1.00269775  1959
